0 FENGYUN 1C DEB
1 32157U 99025CTB 13283.44639371  .00003819  00000-0  62854-3 0  6937
2 32157 099.0443 145.7273 0183898 100.6453 261.5513 14.60602942332841
0 FENGYUN 1C DEB
1 32157U 99025CTB 13285.57003329  .00003358  00000-0  55382-3 0  6948
2 32157 099.0441 148.0460 0183909 094.2111 268.0126 14.60614733333153
0 FENGYUN 1C DEB
1 32157U 99025CTB 13288.44718282  .00005966  00000-0  97492-3 0  6954
2 32157 099.0435 151.1875 0183820 085.4960 276.7211 14.60636078333570
0 FENGYUN 1C DEB
1 32157U 99025CTB 13290.57075678  .00005216  00000-0  85349-3 0  6963
2 32157 099.0427 153.5062 0183826 079.0428 283.1390 14.60652939333887
0 FENGYUN 1C DEB
1 32157U 99025CTB 13293.37930951  .00004627  00000-0  75820-3 0  6977
2 32157 099.0420 156.5732 0183781 070.5151 291.5798 14.60671949334299
0 FENGYUN 1C DEB
1 32157U 99025CTB 13295.43432049  .00005325  00000-0  87071-3 0  6989
2 32157 099.0417 158.8169 0183745 064.2953 297.7090 14.60686112334598
